[
  {
    "OBJECT_NAME": "STARLINK-34018",
    "OBJECT_ID": "25093A",
    "EPOCH": "2025-11-11T05:29:12.926112",
    "MEAN_MOTION": 15.27605187,
    "ECCENTRICITY": 6.03e-05,
    "INCLINATION": 42.9991,
    "RA_OF_ASC_NODE": 27.0417,
    "ARG_OF_PERICENTER": 226.104,
    "MEAN_ANOMALY": 133.9762,
    "EPHEMERIS_TYPE": 0,
    "CLASSIFICATION_TYPE": "U",
    "NORAD_CAT_ID": 63836,
    "ELEMENT_SET_NO": 999,
    "REV_AT_EPOCH": 2985,
    "BSTAR": 0.0018934000000000002,
    "MEAN_MOTION_DOT": 0.00052249,
    "MEAN_MOTION_DDOT": 0.0,
    "TLE_LINE1": "1 63836U 25093A   25315.22862183  .00052249  00000+0  18934-2 0  9991",
    "TLE_LINE2": "2 63836  42.9991  27.0417 0000603 226.1040 133.9762 15.27605187 29854",
    "COMMENT": "Grouped by shell and plane from TLE"
  },
  {
    "OBJECT_NAME": "STARLINK-34042",
    "OBJECT_ID": "25093C",
    "EPOCH": "2025-11-11T04:34:23.999520",
    "MEAN_MOTION": 15.27607612,
    "ECCENTRICITY": 3.51e-05,
    "INCLINATION": 42.9999,
    "RA_OF_ASC_NODE": 23.2853,
    "ARG_OF_PERICENTER": 296.9363,
    "MEAN_ANOMALY": 63.1453,
    "EPHEMERIS_TYPE": 0,
    "CLASSIFICATION_TYPE": "U",
    "NORAD_CAT_ID": 63838,
    "ELEMENT_SET_NO": 999,
    "REV_AT_EPOCH": 2989,
    "BSTAR": 0.0012167,
    "MEAN_MOTION_DOT": 0.00033397,
    "MEAN_MOTION_DDOT": 0.0,
    "TLE_LINE1": "1 63838U 25093C   25315.19055555  .00033397  00000+0  12167-2 0  9991",
    "TLE_LINE2": "2 63838  42.9999  23.2853 0000351 296.9363  63.1453 15.27607612 29899",
    "COMMENT": "Grouped by shell and plane from TLE"
  },
  {
    "OBJECT_NAME": "STARLINK-34040",
    "OBJECT_ID": "25093D",
    "EPOCH": "2025-11-11T05:07:00.688224",
    "MEAN_MOTION": 15.27621834,
    "ECCENTRICITY": 1.05e-05,
    "INCLINATION": 42.9989,
    "RA_OF_ASC_NODE": 26.9216,
    "ARG_OF_PERICENTER": 288.5311,
    "MEAN_ANOMALY": 71.5529,
    "EPHEMERIS_TYPE": 0,
    "CLASSIFICATION_TYPE": "U",
    "NORAD_CAT_ID": 63839,
    "ELEMENT_SET_NO": 999,
    "REV_AT_EPOCH": 2985,
    "BSTAR": 0.0020366,
    "MEAN_MOTION_DOT": 0.00056282,
    "MEAN_MOTION_DDOT": 0.0,
    "TLE_LINE1": "1 63839U 25093D   25315.21320241  .00056282  00000+0  20366-2 0  9990",
    "TLE_LINE2": "2 63839  42.9989  26.9216 0000105 288.5311  71.5529 15.27621834 29854",
    "COMMENT": "Grouped by shell and plane from TLE"
  },
  {
    "OBJECT_NAME": "STARLINK-33990",
    "OBJECT_ID": "25093E",
    "EPOCH": "2025-11-11T05:10:42.690432",
    "MEAN_MOTION": 15.27617929,
    "ECCENTRICITY": 0.0001345,
    "INCLINATION": 42.997,
    "RA_OF_ASC_NODE": 26.9268,
    "ARG_OF_PERICENTER": 296.6296,
    "MEAN_ANOMALY": 63.4418,
    "EPHEMERIS_TYPE": 0,
    "CLASSIFICATION_TYPE": "U",
    "NORAD_CAT_ID": 63840,
    "ELEMENT_SET_NO": 999,
    "REV_AT_EPOCH": 2963,
    "BSTAR": 0.0021428,
    "MEAN_MOTION_DOT": 0.00059248,
    "MEAN_MOTION_DDOT": 0.0,
    "TLE_LINE1": "1 63840U 25093E   25315.21577188  .00059248  00000+0  21428-2 0  9991",
    "TLE_LINE2": "2 63840  42.9970  26.9268 0001345 296.6296  63.4418 15.27617929 29635",
    "COMMENT": "Grouped by shell and plane from TLE"
  },
  {
    "OBJECT_NAME": "STARLINK-34056",
    "OBJECT_ID": "25093F",
    "EPOCH": "2025-11-11T05:38:27.874176",
    "MEAN_MOTION": 15.27609484,
    "ECCENTRICITY": 8.55e-05,
    "INCLINATION": 43.0013,
    "RA_OF_ASC_NODE": 27.0876,
    "ARG_OF_PERICENTER": 251.6853,
    "MEAN_ANOMALY": 108.3906,
    "EPHEMERIS_TYPE": 0,
    "CLASSIFICATION_TYPE": "U",
    "NORAD_CAT_ID": 63841,
    "ELEMENT_SET_NO": 999,
    "REV_AT_EPOCH": 2963,
    "BSTAR": 0.0019422,
    "MEAN_MOTION_DOT": 0.00053622,
    "MEAN_MOTION_DDOT": 0.0,
    "TLE_LINE1": "1 63841U 25093F   25315.23504484  .00053622  00000+0  19422-2 0  9994",
    "TLE_LINE2": "2 63841  43.0013  27.0876 0000855 251.6853 108.3906 15.27609484 29636",
    "COMMENT": "Grouped by shell and plane from TLE"
  },
  {
    "OBJECT_NAME": "STARLINK-34026",
    "OBJECT_ID": "25093G",
    "EPOCH": "2025-11-11T05:40:20.378208",
    "MEAN_MOTION": 15.27582432,
    "ECCENTRICITY": 5.81e-05,
    "INCLINATION": 43.0015,
    "RA_OF_ASC_NODE": 27.097,
    "ARG_OF_PERICENTER": 229.1212,
    "MEAN_ANOMALY": 130.959,
    "EPHEMERIS_TYPE": 0,
    "CLASSIFICATION_TYPE": "U",
    "NORAD_CAT_ID": 63842,
    "ELEMENT_SET_NO": 999,
    "REV_AT_EPOCH": 2963,
    "BSTAR": 0.0014873,
    "MEAN_MOTION_DOT": 0.00040896,
    "MEAN_MOTION_DDOT": 0.0,
    "TLE_LINE1": "1 63842U 25093G   25315.23634697  .00040896  00000+0  14873-2 0  9999",
    "TLE_LINE2": "2 63842  43.0015  27.0970 0000581 229.1212 130.9590 15.27582432 29632",
    "COMMENT": "Grouped by shell and plane from TLE"
  },
  {
    "OBJECT_NAME": "STARLINK-33777",
    "OBJECT_ID": "25093H",
    "EPOCH": "2025-11-11T06:20:48.556896",
    "MEAN_MOTION": 15.27601421,
    "ECCENTRICITY": 8.47e-05,
    "INCLINATION": 43.0019,
    "RA_OF_ASC_NODE": 26.4369,
    "ARG_OF_PERICENTER": 196.4197,
    "MEAN_ANOMALY": 163.6627,
    "EPHEMERIS_TYPE": 0,
    "CLASSIFICATION_TYPE": "U",
    "NORAD_CAT_ID": 63843,
    "ELEMENT_SET_NO": 999,
    "REV_AT_EPOCH": 2986,
    "BSTAR": 0.0016049,
    "MEAN_MOTION_DOT": 0.00044195,
    "MEAN_MOTION_DDOT": 0.0,
    "TLE_LINE1": "1 63843U 25093H   25315.26445089  .00044195  00000+0  16049-2 0  9991",
    "TLE_LINE2": "2 63843  43.0019  26.4369 0000847 196.4197 163.6627 15.27601421 29864",
    "COMMENT": "Grouped by shell and plane from TLE"
  },
  {
    "OBJECT_NAME": "STARLINK-34041",
    "OBJECT_ID": "25093J",
    "EPOCH": "2025-11-11T05:47:42.932832",
    "MEAN_MOTION": 15.27611803,
    "ECCENTRICITY": 0.0001163,
    "INCLINATION": 43.0023,
    "RA_OF_ASC_NODE": 27.1346,
    "ARG_OF_PERICENTER": 262.2541,
    "MEAN_ANOMALY": 97.8179,
    "EPHEMERIS_TYPE": 0,
    "CLASSIFICATION_TYPE": "U",
    "NORAD_CAT_ID": 63844,
    "ELEMENT_SET_NO": 999,
    "REV_AT_EPOCH": 2985,
    "BSTAR": 0.0020709,
    "MEAN_MOTION_DOT": 0.00057222,
    "MEAN_MOTION_DDOT": 0.0,
    "TLE_LINE1": "1 63844U 25093J   25315.24146913  .00057222  00000+0  20709-2 0  9997",
    "TLE_LINE2": "2 63844  43.0023  27.1346 0001163 262.2541  97.8179 15.27611803 29854",
    "COMMENT": "Grouped by shell and plane from TLE"
  },
  {
    "OBJECT_NAME": "STARLINK-34011",
    "OBJECT_ID": "25093K",
    "EPOCH": "2025-11-11T05:58:49.213344",
    "MEAN_MOTION": 15.27602678,
    "ECCENTRICITY": 5.52e-05,
    "INCLINATION": 42.9976,
    "RA_OF_ASC_NODE": 27.1928,
    "ARG_OF_PERICENTER": 279.3961,
    "MEAN_ANOMALY": 80.6828,
    "EPHEMERIS_TYPE": 0,
    "CLASSIFICATION_TYPE": "U",
    "NORAD_CAT_ID": 63845,
    "ELEMENT_SET_NO": 999,
    "REV_AT_EPOCH": 2963,
    "BSTAR": 0.0014448,
    "MEAN_MOTION_DOT": 0.00039739,
    "MEAN_MOTION_DDOT": 0.0,
    "TLE_LINE1": "1 63845U 25093K   25315.24918071  .00039739  00000+0  14448-2 0  9996",
    "TLE_LINE2": "2 63845  42.9976  27.1928 0000552 279.3961  80.6828 15.27602678 29639",
    "COMMENT": "Grouped by shell and plane from TLE"
  },
  {
    "OBJECT_NAME": "STARLINK-34044",
    "OBJECT_ID": "25093L",
    "EPOCH": "2025-11-11T04:48:29.421792",
    "MEAN_MOTION": 15.27642695,
    "ECCENTRICITY": 6.9e-05,
    "INCLINATION": 42.9989,
    "RA_OF_ASC_NODE": 26.8216,
    "ARG_OF_PERICENTER": 88.8393,
    "MEAN_ANOMALY": 271.2538,
    "EPHEMERIS_TYPE": 0,
    "CLASSIFICATION_TYPE": "U",
    "NORAD_CAT_ID": 63846,
    "ELEMENT_SET_NO": 999,
    "REV_AT_EPOCH": 2963,
    "BSTAR": 0.0015377,
    "MEAN_MOTION_DOT": 0.00042377,
    "MEAN_MOTION_DDOT": 0.0,
    "TLE_LINE1": "1 63846U 25093L   25315.20034053  .00042377  00000+0  15377-2 0  9996",
    "TLE_LINE2": "2 63846  42.9989  26.8216 0000690  88.8393 271.2538 15.27642695 29634",
    "COMMENT": "Grouped by shell and plane from TLE"
  },
  {
    "OBJECT_NAME": "STARLINK-34037",
    "OBJECT_ID": "25093M",
    "EPOCH": "2025-11-11T05:03:18.776736",
    "MEAN_MOTION": 15.27625969,
    "ECCENTRICITY": 0.0002635,
    "INCLINATION": 43.0027,
    "RA_OF_ASC_NODE": 26.902,
    "ARG_OF_PERICENTER": 281.2824,
    "MEAN_ANOMALY": 78.7731,
    "EPHEMERIS_TYPE": 0,
    "CLASSIFICATION_TYPE": "U",
    "NORAD_CAT_ID": 63847,
    "ELEMENT_SET_NO": 999,
    "REV_AT_EPOCH": 2985,
    "BSTAR": 0.001964,
    "MEAN_MOTION_DOT": 0.00054259,
    "MEAN_MOTION_DDOT": 0.0,
    "TLE_LINE1": "1 63847U 25093M   25315.21063399  .00054259  00000+0  19640-2 0  9992",
    "TLE_LINE2": "2 63847  43.0027  26.9020 0002635 281.2824  78.7731 15.27625969 29857",
    "COMMENT": "Grouped by shell and plane from TLE"
  },
  {
    "OBJECT_NAME": "STARLINK-34010",
    "OBJECT_ID": "25093N",
    "EPOCH": "2025-11-11T05:12:34.110144",
    "MEAN_MOTION": 15.27622505,
    "ECCENTRICITY": 3e-05,
    "INCLINATION": 42.9968,
    "RA_OF_ASC_NODE": 26.9424,
    "ARG_OF_PERICENTER": 198.6669,
    "MEAN_ANOMALY": 161.4171,
    "EPHEMERIS_TYPE": 0,
    "CLASSIFICATION_TYPE": "U",
    "NORAD_CAT_ID": 63848,
    "ELEMENT_SET_NO": 999,
    "REV_AT_EPOCH": 2963,
    "BSTAR": 0.0020708,
    "MEAN_MOTION_DOT": 0.00057241,
    "MEAN_MOTION_DDOT": 0.0,
    "TLE_LINE1": "1 63848U 25093N   25315.21706146  .00057241  00000+0  20708-2 0  9998",
    "TLE_LINE2": "2 63848  42.9968  26.9424 0000300 198.6669 161.4171 15.27622505 29630",
    "COMMENT": "Grouped by shell and plane from TLE"
  },
  {
    "OBJECT_NAME": "STARLINK-34009",
    "OBJECT_ID": "25093P",
    "EPOCH": "2025-11-11T05:41:04.069824",
    "MEAN_MOTION": 15.27409583,
    "ECCENTRICITY": 0.0003593,
    "INCLINATION": 43.0018,
    "RA_OF_ASC_NODE": 23.632,
    "ARG_OF_PERICENTER": 300.6577,
    "MEAN_ANOMALY": 59.392,
    "EPHEMERIS_TYPE": 0,
    "CLASSIFICATION_TYPE": "U",
    "NORAD_CAT_ID": 63849,
    "ELEMENT_SET_NO": 999,
    "REV_AT_EPOCH": 2989,
    "BSTAR": 0.0020594000000000003,
    "MEAN_MOTION_DOT": 0.00056556,
    "MEAN_MOTION_DDOT": 0.0,
    "TLE_LINE1": "1 63849U 25093P   25315.23685266  .00056556  00000+0  20594-2 0  9991",
    "TLE_LINE2": "2 63849  43.0018  23.6320 0003593 300.6577  59.3920 15.27409583 29892",
    "COMMENT": "Grouped by shell and plane from TLE"
  }
]